YAM-10                  
1 64580U 25135BE  26195.91304788  .00000869  00000+0  91450-4 0  9997
2 64580  97.7753 309.3842 0001726 247.9397 112.1639 14.91900371 57997
YAM-11                  
1 68991U 26100M   26195.71176203  .00000749  00000+0  82205-4 0  9992
2 68991  97.7335  92.4955 0009696   2.9759 357.1515 14.90569374 10797
YAM-16                  
1 68992U 26100N   26195.72490563  .00000928  00000+0  98150-4 0  9997
2 68992  97.7338  92.6354 0004743  63.3745 296.7960 14.91514277 10807
YAM-13                  
1 68993U 26100P   26195.66709183  .00000822  00000+0  89932-4 0  9993
2 68993  97.7337  92.5568 0009654   0.4404 359.6821 14.90409669 10793
YAM-15                  
1 68997U 26100T   26195.72081105  .00000833  00000+0  90568-4 0  9990
2 68997  97.7329  92.6340 0009459  13.6711 346.4762 14.90652428 10800
YAM-12                  
1 69003U 26100Z   26195.69490631  .00001823  00000+0  19244-3 0  9994
2 69003  97.7315  92.4983 0009834 351.7862   8.3194 14.90450004 10781
YAM-14                  
1 69008U 26100AE  26195.95635186  .00000640  00000+0  71379-4 0  9998
2 69008  97.7317  92.7755 0006131  37.7962 322.3686 14.90347230 10823
