{"fetched_at":"2026-07-15T06:36:35.915Z","source":"https://celestrak.org/NORAD/elements/gp.php?NAME=YAM&FORMAT=JSON","constellation":"earthdaily-constellation","records":[{"OBJECT_NAME":"YAM-10","OBJECT_ID":"2025-135BE","EPOCH":"2026-07-14T21:54:47.336832","CLASSIFICATION_TYPE":"U","MEAN_MOTION":14.91900371,"ECCENTRICITY":0.00017268,"INCLINATION":97.7753,"RA_OF_ASC_NODE":309.3842,"ARG_OF_PERICENTER":247.9397,"MEAN_ANOMALY":112.1639,"EPHEMERIS_TYPE":0,"NORAD_CAT_ID":64580,"ELEMENT_SET_NO":999,"REV_AT_EPOCH":5799,"BSTAR":0.00009145027,"MEAN_MOTION_DOT":0.00000869,"MEAN_MOTION_DDOT":0},{"OBJECT_NAME":"YAM-11","OBJECT_ID":"2026-100M","EPOCH":"2026-07-14T17:04:56.239392","CLASSIFICATION_TYPE":"U","MEAN_MOTION":14.90569374,"ECCENTRICITY":0.0009696,"INCLINATION":97.7335,"RA_OF_ASC_NODE":92.4955,"ARG_OF_PERICENTER":2.9759,"MEAN_ANOMALY":357.1515,"EPHEMERIS_TYPE":0,"NORAD_CAT_ID":68991,"ELEMENT_SET_NO":999,"REV_AT_EPOCH":1079,"BSTAR":0.000082205348,"MEAN_MOTION_DOT":0.00000749,"MEAN_MOTION_DDOT":0},{"OBJECT_NAME":"YAM-16","OBJECT_ID":"2026-100N","EPOCH":"2026-07-14T17:23:51.846432","CLASSIFICATION_TYPE":"U","MEAN_MOTION":14.91514277,"ECCENTRICITY":0.00047434,"INCLINATION":97.7338,"RA_OF_ASC_NODE":92.6354,"ARG_OF_PERICENTER":63.3745,"MEAN_ANOMALY":296.796,"EPHEMERIS_TYPE":0,"NORAD_CAT_ID":68992,"ELEMENT_SET_NO":999,"REV_AT_EPOCH":1080,"BSTAR":0.00009815026,"MEAN_MOTION_DOT":0.00000928,"MEAN_MOTION_DDOT":0},{"OBJECT_NAME":"YAM-13","OBJECT_ID":"2026-100P","EPOCH":"2026-07-14T16:00:36.734112","CLASSIFICATION_TYPE":"U","MEAN_MOTION":14.90409669,"ECCENTRICITY":0.00096549,"INCLINATION":97.7337,"RA_OF_ASC_NODE":92.5568,"ARG_OF_PERICENTER":0.4404,"MEAN_ANOMALY":359.6821,"EPHEMERIS_TYPE":0,"NORAD_CAT_ID":68993,"ELEMENT_SET_NO":999,"REV_AT_EPOCH":1079,"BSTAR":0.000089932281,"MEAN_MOTION_DOT":0.00000822,"MEAN_MOTION_DDOT":0},{"OBJECT_NAME":"YAM-15","OBJECT_ID":"2026-100T","EPOCH":"2026-07-14T17:17:58.074720","CLASSIFICATION_TYPE":"U","MEAN_MOTION":14.90652428,"ECCENTRICITY":0.00094599,"INCLINATION":97.7329,"RA_OF_ASC_NODE":92.634,"ARG_OF_PERICENTER":13.6711,"MEAN_ANOMALY":346.4762,"EPHEMERIS_TYPE":0,"NORAD_CAT_ID":68997,"ELEMENT_SET_NO":999,"REV_AT_EPOCH":1080,"BSTAR":0.000090568443,"MEAN_MOTION_DOT":0.00000833,"MEAN_MOTION_DDOT":0},{"OBJECT_NAME":"YAM-12","OBJECT_ID":"2026-100Z","EPOCH":"2026-07-14T16:40:39.905184","CLASSIFICATION_TYPE":"U","MEAN_MOTION":14.90450004,"ECCENTRICITY":0.00098345,"INCLINATION":97.7315,"RA_OF_ASC_NODE":92.4983,"ARG_OF_PERICENTER":351.7862,"MEAN_ANOMALY":8.3194,"EPHEMERIS_TYPE":0,"NORAD_CAT_ID":69003,"ELEMENT_SET_NO":999,"REV_AT_EPOCH":1078,"BSTAR":0.00019243878,"MEAN_MOTION_DOT":0.00001823,"MEAN_MOTION_DDOT":0},{"OBJECT_NAME":"YAM-14","OBJECT_ID":"2026-100AE","EPOCH":"2026-07-14T22:57:08.800704","CLASSIFICATION_TYPE":"U","MEAN_MOTION":14.9034723,"ECCENTRICITY":0.00061318,"INCLINATION":97.7317,"RA_OF_ASC_NODE":92.7755,"ARG_OF_PERICENTER":37.7962,"MEAN_ANOMALY":322.3686,"EPHEMERIS_TYPE":0,"NORAD_CAT_ID":69008,"ELEMENT_SET_NO":999,"REV_AT_EPOCH":1082,"BSTAR":0.000071378873,"MEAN_MOTION_DOT":0.0000064,"MEAN_MOTION_DDOT":0}]}
